     2.11           N: GPS NAV DATA                         RINEX VERSION / TYPE
teqc  2019Feb25                         20220928 22:00:43UTCPGM / RUN BY / DATE
Linux2.6.32-573.12.1.el6.x86_64|x86_64|gcc|Win64-MinGW64|=+ COMMENT
                                                            END OF HEADER
 5 22  9 11 20  0  0.0-9.630667045712D-05-1.477928890381D-12 0.000000000000D+00
    5.300000000000D+01 3.328125000000D+01 5.029137994939D-09 2.559454371822D+00
    1.672655344009D-06 6.116722011939D-03 3.205612301826D-06 5.153776601791D+03
    7.200000000000D+04-1.862645149231D-08 1.607876506122D+00-8.940696716309D-08
    9.619293833285D-01 3.200625000000D+02 1.108500302858D+00-8.424636988025D-09
    2.914407049026D-10 1.000000000000D+00 2.227000000000D+03 0.000000000000D+00
    2.000000000000D+00 0.000000000000D+00-1.117587089539D-08 5.300000000000D+01
    7.386000000000D+04
10 22  9 11 22  0  0.0-2.877321094275D-06-1.705302565824D-12 0.000000000000D+00
    2.100000000000D+01 2.721875000000D+01 4.653408325339D-09-9.144879096921D-01
    1.559033989906D-06 7.885235711001D-03 3.093853592873D-06 5.153677038193D+03
    7.920000000000D+04 1.415610313416D-07 1.648277702594D+00 9.872019290924D-08
    9.746965751561D-01 3.244062500000D+02-2.511648899298D+00-8.392134986934D-09
    2.814402877416D-10 1.000000000000D+00 2.227000000000D+03 0.000000000000D+00
    2.000000000000D+00 0.000000000000D+00 2.328306436539D-09 2.100000000000D+01
    7.386000000000D+04
12 22  9 11 22  0  0.0-2.768374979496D-04-6.025402399246D-12 0.000000000000D+00
    8.000000000000D+01 1.996875000000D+01 5.014137549608D-09-2.551226053034D-01
    1.022592186928D-06 8.497882634401D-03 3.255903720856D-06 5.153734092712D+03
    7.920000000000D+04-9.126961231232D-08-1.419728988108D+00 5.774199962616D-08
    9.675900117107D-01 3.199062500000D+02 1.317072272638D+00-8.683933572229D-09
    7.500312003417D-12 1.000000000000D+00 2.227000000000D+03 0.000000000000D+00
    2.000000000000D+00 0.000000000000D+00-1.257285475731D-08 8.000000000000D+01
    7.386000000000D+04
13 22  9 11 22  0  0.0 3.857021220028D-04 7.275957614183D-12 0.000000000000D+00
    9.700000000000D+01-8.959375000000D+01 4.311965451365D-09 2.851531797539D+00
   -4.656612873077D-06 6.419224431738D-03 1.125596463680D-05 5.153682243347D+03
    7.920000000000D+04 3.166496753693D-08 2.834199223134D+00-9.685754776001D-08
    9.694602720145D-01 1.675000000000D+02 9.342322976565D-01-7.840326610165D-09
   -4.335894976393D-10 1.000000000000D+00 2.227000000000D+03 0.000000000000D+00
    2.000000000000D+00 0.000000000000D+00-1.117587089539D-08 9.700000000000D+01
    7.386000000000D+04
14 22  9 11 22  0  0.0-1.041996292770D-04 2.614797267597D-12 0.000000000000D+00
    1.980000000000D+02 1.625000000000D+01 5.320221596605D-09-3.135745753311D-01
    6.500631570816D-07 2.287586568855D-03 2.868473529816D-06 5.153650377274D+03
    7.920000000000D+04 5.960464477539D-08-1.454348915196D+00-1.676380634308D-08
    9.509715900238D-01 3.213125000000D+02-3.039771046368D+00-8.718219923765D-09
   -4.893060956412D-11 1.000000000000D+00 2.227000000000D+03 0.000000000000D+00
    2.000000000000D+00 0.000000000000D+00-7.916241884232D-09 9.660000000000D+02
    7.386000000000D+04
15 22  9 11 22  0  0.0-2.978648990393D-05 3.069544618484D-12 0.000000000000D+00
    4.400000000000D+01-1.087812500000D+02 5.388081536495D-09 2.344288601624D+00
   -5.722045898438D-06 1.454448478762D-02 7.513910531998D-06 5.153616468430D+03
    7.920000000000D+04 1.117587089539D-07 2.566550387628D+00-2.570450305939D-07
    9.311500448341D-01 2.193437500000D+02 1.131618757766D+00-8.391420891485D-09
   -4.514473794792D-10 1.000000000000D+00 2.227000000000D+03 0.000000000000D+00
    2.000000000000D+00 0.000000000000D+00-1.071020960808D-08 4.400000000000D+01
    7.386000000000D+04
17 22  9 11 22  0  0.0 6.581838242710D-04 3.865352482535D-12 0.000000000000D+00
    1.180000000000D+02-8.262500000000D+01 3.919806257358D-09-2.946355123586D+00
   -4.092231392860D-06 1.369640743360D-02 1.033581793308D-05 5.153617231369D+03
    7.920000000000D+04 1.844018697739D-07-3.811781717266D-01 8.009374141693D-08
    9.777510091284D-01 1.874687500000D+02-1.482546687506D+00-7.584958439111D-09
   -5.596661467600D-10 1.000000000000D+00 2.227000000000D+03 0.000000000000D+00
    2.000000000000D+00 0.000000000000D+00-1.117587089539D-08 1.180000000000D+02
    7.386000000000D+04
19 22  9 11 22  0  0.0 2.094414085150D-04 5.002220859751D-12 0.000000000000D+00
    1.000000000000D+01-7.525000000000D+01 3.947307369856D-09-7.812554266301D-01
   -3.848224878311D-06 9.141484391876D-03 1.110136508942D-05 5.153722389221D+03
    7.920000000000D+04-1.378357410431D-07-3.364869475063D-01-2.048909664154D-08
    9.766828741220D-01 1.754687500000D+02 2.173726135733D+00-7.924972678097D-09
   -4.678766263311D-10 1.000000000000D+00 2.227000000000D+03 0.000000000000D+00
    2.000000000000D+00 0.000000000000D+00-1.536682248116D-08 1.000000000000D+01
    7.386000000000D+04
24 22  9 11 22  0  0.0 1.387228257954D-04-1.284661266254D-11 0.000000000000D+00
    3.400000000000D+01 3.453125000000D+01 5.008423009656D-09 1.399893559826D+00
    1.996755599976D-06 1.295853557531D-02 1.344829797745D-05 5.153688789368D+03
    7.920000000000D+04-2.458691596985D-07-2.620154634815D+00 1.825392246246D-07
    9.344991353771D-01 1.074687500000D+02 8.361539232929D-01-8.422136765773D-09
    2.275094834747D-10 1.000000000000D+00 2.227000000000D+03 0.000000000000D+00
    2.000000000000D+00 0.000000000000D+00 2.793967723846D-09 3.400000000000D+01
    7.386000000000D+04
30 22  9 11 20  0  0.0-5.368879064918D-04-3.410605131648D-13 0.000000000000D+00
    1.030000000000D+02 6.665625000000D+01 4.955920562821D-09-7.076883017384D-01
    3.343448042870D-06 5.957345827483D-03 1.237168908119D-05 5.153721256256D+03
    7.200000000000D+04 1.285225152969D-07-2.523851630037D+00 8.568167686462D-08
    9.360329962057D-01 1.264687500000D+02-2.654566770481D+00-8.282487584665D-09
    2.953694511199D-10 1.000000000000D+00 2.227000000000D+03 0.000000000000D+00
    2.000000000000D+00 0.000000000000D+00 3.725290298462D-09 1.030000000000D+02
    7.386000000000D+04
25 22  9 11 21 59 44.0 3.709914162755D-04 4.092726157978D-12 0.000000000000D+00
    5.000000000000D+00 3.125000000000D+01 5.330222041522D-09-4.489076068723D-01
    1.668930053711D-06 1.052155508660D-02 3.216788172722D-06 5.153612625122D+03
    7.918400000000D+04-9.872019290924D-08-1.499036866868D+00 1.210719347000D-07
    9.551323865149D-01 3.124375000000D+02 1.004517414114D+00-8.855011834896D-09
    3.714440560687D-11 1.000000000000D+00 2.227000000000D+03 0.000000000000D+00
    2.000000000000D+00 0.000000000000D+00 5.587935447693D-09 5.000000000000D+00
    7.458000000000D+04
32 22  9 11 22  0  0.0-2.304706722498D-04-1.125499693444D-11 0.000000000000D+00
    6.600000000000D+01-9.425000000000D+01 4.658408325753D-09-2.246631822696D+00
   -4.868954420090D-06 6.093987496570D-03 8.728355169296D-06 5.153647598267D+03
    7.920000000000D+04 8.568167686462D-08 2.690155033767D+00-7.078051567078D-08
    9.589628444002D-01 2.086250000000D+02-2.292523150300D+00-8.111409321998D-09
   -3.571577478212D-10 1.000000000000D+00 2.227000000000D+03 0.000000000000D+00
    2.000000000000D+00 0.000000000000D+00 4.656612873077D-10 6.600000000000D+01
    7.488000000000D+04
 6 22  9 11 22  0  0.0 4.576458595693D-04 1.261923898710D-11 0.000000000000D+00
    3.700000000000D+01 6.659375000000D+01 3.521575253629D-09 1.317105985585D+00
    3.520399332047D-06 2.471325220540D-03 1.256912946701D-05 5.153802280426D+03
    7.920000000000D+04 9.685754776001D-08 6.095578913786D-01-2.048909664154D-08
    9.879626571588D-01 1.486562500000D+02-9.149705512361D-01-7.612459995698D-09
    4.493044269971D-10 1.000000000000D+00 2.227000000000D+03 0.000000000000D+00
    2.000000000000D+00 0.000000000000D+00 3.725290298462D-09 3.700000000000D+01
    7.716000000000D+04
